Store_Name	Type	Address	City	State_province	Zip	Country_ISO3166_alpha2	Latitude	Longitude	Phone	URL	Accessibility	Public
Manson Community Library	Library	Wapato Way & Manson Blvd	Manson	Washington	98831	US	47,8852300003	-120,1596499997	[+1] 509-687-3420	http://www.ncrl.org/manson.htm	Wheelchair accessible	All Public
Davenport City Library	Library	505 7th St	Davenport	Washington	99122	US	47,6539963007	-118,1509557157	[+1] 509-725-4355	http://www.davenportwa.us/index.asp?Type=B_BASIC&SEC={EA1BEF96-CBC1-4BD4-AE0A-C1...	Wheelchair accessible	All Public
Quincy Community Library	Library	208 Central Avenue S	Quincy	Washington	98849	US	47,2362119628	-119,8532110831	[+1] 509-787-2359	http://www.ncrl.org/quincy.htm	Wheelchair accessible	All Public
Fairhaven Library	Library	1117 12th St	Bellingham	Washington	98225-6617	US	48,7214839328	-122,5021819104	[+1] 360-778-7324	http://www.bellinghampubliclibrary.org	Wheelchair accessible	All Public
Everson Public Library	Library	104 Kirsch Dr	Everson	Washington	98247	US	48,9195596097	-122,3413831316	[+1] 360-966-5100	http://www.wcls.org	None	All Public
Medical Lake Library	Library	321 E. Herb Street	Medical Lake	Washington	99022	US	47,5710930269	-117,6795266699	[+1] 509-893-8330	http://www.scld.org	Wheelchair accessible	All Public
Point Roberts Public Library	Library	1487 Gulf Road	Point Roberts	Washington	98281	US	48,984617	-123,076803	[+1] 360-945-6545	http://www.wcls.org	None	All Public
Cashmere Community Library	Library	300 Woodring St	Cashmere	Washington	98815-1061	US	47,5228675321	-120,4677715886	[+1] 509-782-3314	http://www.ncrl.org/cashmere.htm	Wheelchair accessible	All Public
Zillah Library	Library	109 7th St	Zilla	Washington	98953-0448	US	46,4012366366	-120,2597220749	[+1] 509-829-6707	http://www.yvl.org	Wheelchair accessible	All Public
Vashon Library	Library	17210 Vashon Hwy SW	Vashon	Washington	98070-4600	US	47,4507958647	-122,4604263886	[+1] 206-463-2069	http://www.kcls.org/vashon/	None	All Public
Kalama Public Library	Library	312 N 1st St 312 N 1st St	Kalama	Washington	98625	US	46,0098207336	-122,8452787204	[+1] 360-673-4568	http://www.kalamalibrary.org/	Wheelchair accessible	All Public
NewHolly Branch	Library	7058 32nd Ave. S.	Seattle	Washington	98118	US	47,5393446132	-122,2910583162	[+1] 206-386-1905	http://www.spl.org/locations/newholly-branch/nhy-computers-and-equipment	Wheelchair accessible	All Public
Lakewood Library	Library	6300 Wildaire Rd SW	Lakewood	Washington	98499-1321	US	47,1606102305	-122,5206810248	[+1] 253-548-3302	http://www.piercecountylibrary.org	Wheelchair accessible	All Public
Grandview Public Library	Library	500 W Main St	Grandview	Washington	98930	US	46,2559783883	-119,9074692815	[+1] 509-882-9217	http://www.grandview.wa.us/library.htm	Wheelchair accessible	All Public
Richard E Ostrander Summitview Library	Library	5709 Summitview Ave	Yakima	Washington	98908-3041	US	46,6000660015	-120,5847743659	[+1] 509-966-7070	http://www.yvl.org	Wheelchair accessible	All Public
Elma Timberland Library	Library	118 N 1st St	Elma	Washington	98541-0547	US	47,0046945912	-123,4014180265	[+1] 360-482-3737	http://www.trl.org/Locations/Pages/Locations.aspx	None	All Public
Montlake Branch	Library	713 Eighth Ave. S.	Seattle	Washington	98104	US	47,5965363407	-122,3225273081	[+1] 206-386-1300	http://www.spl.org/locations/montlake-branch/mon-computers-and-equipment	Wheelchair accessible	All Public
Royal City Community Library	Library	136 Camelia St	Royal City	Washington	98357	US	46,9001519391	-119,6273996572	[+1] 509-346-9281	http://www.ncrl.org/royalcity.htm	Wheelchair accessible	All Public
Sumas Public Library	Library	451 2nd St	Sumas	Washington	98295	US	48,9982560134	-122,2597396583	[+1] 360-988-2501	http://www.wcls.org	None	All Public
Dayton Memorial Library	Library	111 S. 3rd Street	Dayton	Washington	99328	US	46,3209618288	-117,9775052961	[+1] 509-382-4131	http://www.ccrld.lib.wa.us	Wheelchair accessible	All Public
Metrocenter YMCA	Human Services/Non-profit (non-residential)	909 4th Ave	Seattle	Washington	98104	US	47,6056681114	-122,3325877621	[+1] 206-839-8911	http://www.seattleymca.org/	Wheelchair accessible	All Public
Edith Bishel Center for the Blind and Visually Impaired	Human Services/Non-profit (non-residential)	628 North Arthur Street	Kennewick	Washington	99336-2128	US	46,216620271	-119,186408568	[+1] 509-735-0699	http://edithbishelcenter.org	Blind/LV	All Public
Harrah Library	Library	21 E Pioneer St	Harrah	Washington	98933	US	46,4037124078	-120,5439031133	[+1] 509-848-3458	http://www.yvl.org	Wheelchair accessible	All Public
Moses Lake Community Library	Library	418 E 5th Ave	Moses Lake	Washington	98837-1797	US	47,1305776027	-119,2723332963	[+1] 509-765-3489	http://www.ncrl.org/moseslake.htm	Wheelchair accessible	All Public
Argonne Library	Library	4322 N Argonne Rd	Spokane	Washington	99212-1868	US	47,6962478261	-117,2827866489	[+1] 509-893-8260	http://www.scld.org	Wheelchair accessible	All Public
Kirkland Library	Library	308 Kirkland Ave	Kirkland	Washington	98033-6221	US	47,6755720508	-122,2032231064	[+1] 425-822-2459	http://www.kcls.org/kirkland/	Blind/LV	All Public
Carnation Library	Library	4804 Tolt Ave	Carnation	Washington	98014	US	47,6508320637	-121,9122086727	[+1] 425-333-4398	http://www.kcls.org/carnation/	None	All Public
New Futures Arbor Heights	Housing	135 SW 116th St	Burien	Washington	98146	US	47,4686200004	-122,3403599997	[+1] 206-244-0533	http://newfutures.org/our-programs/our-sites/arbor-heights/	None	Limited Users
Ballard Library	Library	5614 22nd Ave. N.W.	Seattle	Washington	98107	US	47,6696728602	-122,3847214601	[+1] 206-684-4089	http://www.spl.org/locations/ballard-branch/bal-computers-and-equipment	None, Wheelchair accessible	All Public
Mill Creek Library	Library	15429 Bothell Everett Hwy	Mill Creek	Washington	98012-1212	US	47,857864988	-122,2187156068	[+1] 425-337-4822	http://www.sno-isle.org	Deaf, Wheelchair accessible	All Public
Delridge Branch	Library	5423 Delridge Way S.W.	Seattle	Washington	98106	US	47,5533055714	-122,3630837864	[+1] 206-733-9125	http://www.spl.org/locations/delridge-branch/dlr-computers-and-equipment	Wheelchair accessible	All Public
Brewster Community Library	Library	108 S Third	Brewster	Washington	98812-0280	US	48,0996700003	-119,7809099998	[+1] 509-689-4046	http://www.ncrl.org/brewster.htm	Wheelchair accessible	All Public
Skyway Library	Library	7614 South 126 St	Seattle	Washington	98178	US	47,4906987831	-122,2376733151	[+1] 206-772-5541	http://www.kcls.org/skyway/	Blind/LV	All Public
Ocean Park Timberland Library	Library	1308 256th Place	Ocean Park	Washington	98640-0310	US	46,4878238434	-124,0516520734	[+1] 360-665-4184	http://www.trl.org/Locations/Pages/Locations.aspx	None	All Public
Yakama Nation Library	Library	Spiel-yi LoopP.O. Box 151	Toppenish	Washington	98948	US	46,3750800001	-120,3129800001	[+1] 509-865-2800	http://www.yakamamuseum.com/ynlibrary.php	None	All Public
Yelm Timberland Library	Library	210 Prarie Park St SE	Yelm	Washington	98597-7699	US	46,939298799	-122,5992235997	[+1] 360-458-3374	http://www.trl.org/Locations/Pages/Locations.aspx	None	All Public
Garfield Computer Lab	Government/Public Community Center	2323 East Cherry St	Seattle	Washington	98122	US	47,6079515259	-122,3024566268	[+1] 206-684-4788	http://www.seattle.gov/parks/rectech/labs/garfield/	None	All Public
Leavenworth Community Library	Library	700 Hwy 2	Leavenworth	Washington	98826	US	47,5942501649	-120,6652277012	[+1] 509-548-7923	http://www.ncrl.org/leavenworth.htm	Wheelchair accessible	All Public
Tieton Library	Library	418 Maple St	Tieton	Washington	98947	US	46,7023389564	-120,7553308049	[+1] 509-673-2621	http://www.yvl.org	Wheelchair accessible	All Public
South Park Branch	Library	8604 Eighth Ave. S.	Seattle	Washington	98108	US	47,5262130101	-122,3228930706	[+1] 206-615-1688	http://www.spl.org/locations/south-park-branch/spa-computers-and-equipment	Wheelchair accessible	All Public
North Fork Public Library	Library	7506 Kendall Road	Maple Falls	Washington	98266	US	48,9236900002	-122,0772799996	[+1] 360-599-2020	http://www.wcls.org	None	All Public
Enumclaw Public Library	Library	1700 1st St	Enumclaw	Washington	98022-3460	US	47,2036177298	-121,986733239	[+1] 360-825-2938	http://www.enumclaw.lib.wa.us/	Wheelchair accessible	All Public
Soap Lake Community Library	Library	32 E Main	Soap Lake	Washington	98851	US	47,3889799997	-119,4832300004	[+1] 509-246-1313	http://www.ncrl.org/soaplake.htm	Wheelchair accessible	All Public
Boulevard Park Library	Library	12015 Roseberg Ave S	Seattle	Washington	98168-2358	US	47,4953662645	-122,3075956029	[+1] 206-242-8662	http://www.kcls.org/boulevardpark/	Blind/LV	All Public
West Seattle Branch	Library	2306 42nd Ave. S.W.	Seattle	Washington	98116	US	47,5828613047	-122,3850721957	[+1] 206-684-7444	http://www.spl.org/locations/west-seattle-branch/wst-computers-and-equipment	Wheelchair accessible	All Public
Denny Ashby Library	Library	856 Arlington St	Pomeroy	Washington	99347	US	46,4708813436	-117,5989279765	[+1] 509-843-3710	http://www.pomeroy.lib.wa.us/	Wheelchair accessible	All Public
New Futures Woodridge Park	Housing	12420 28th Ave S#29 & #30	Burien	Washington	98168	US	47,4686200004	-122,3403599997	[+1] 206-242-2207	http://newfutures.org/our-programs/our-sites/woodridge-park/	None	Limited Users
White Swan Library	Library	White Swan Library	White Swan	Washington	98952	US	46,3828699997	-120,7306300003	[+1] 509-874-2060	http://www.yvl.org	Wheelchair accessible	All Public
Rainier Beach Branch	Library	9125 Rainier Ave. S.	Seattle	Washington	98118	US	47,5215275423	-122,2700309218	[+1] 206-386-1906	http://www.spl.org/locations/rainier-beach-branch/rbe-computers-and-equipment	Wheelchair accessible	All Public
San Juan Island Library District	Library	1010 Guard St	Friday Harbor	Washington	98250-9240	US	48,5362775541	-123,0303177653	[+1] 360-378-2798	http://www.sjlib.org/	Wheelchair accessible	All Public
Shoreline Library	Library	345 NE 175th St	Shoreline	Washington	98155-3517	US	47,7558407399	-122,3259637759	[+1] 206-362-7550	http://www.kcls.org/shoreline/	Blind/LV	All Public
Beacon Hill Library	Library	2821 Beacon Ave. S.	Seattle	Washington	98144	US	47,5781758369	-122,3112198707	[+1] 206-684-4711	http://www.spl.org/locations/beacon-hill-branch/bea-computers-and-equipment	Wheelchair accessible	All Public
Warden Community Library	Library	205 S Main St	Warden	Washington	98857	US	46,9685998476	-119,0406728318	[+1] 509-349-2226	http://www.ncrl.org/warden.htm	Wheelchair accessible	All Public
Lopez Island Family Resource Center	Human Services/Non-profit (non-residential)	160 Village Road	Lopez Island	Washington	98261	US	48,5248471711	-122,9120749049	[+1] 360-468-4117	http://lifrc.org/	None	All Public
Clinton Library	Library	4781 Deer Lake Rd	Clinton	Washington	98236-0530	US	47,9785989705	-122,358056562	[+1] 360-341-4280	http://www.sno-isle.org	Wheelchair accessible	All Public
Burlington Public Library	Library	820 E Washington Ave	Burlington	Washington	98233	US	48,4747009747	-122,3239093045	[+1] 360-755-0760	http://www.ci.burlington.wa.us/	None	All Public
Richmond Beach Library	Library	19601 21 Ave NW	Shoreline	Washington	98177	US	47,7712713287	-122,3842941358	[+1] 206-546-3522	http://www.kcls.org/richmondbeach/	Blind/LV	All Public
Burien Library	Library	400 SW 152 St	Burien	Washington	98166	US	47,4668667494	-122,3393506638	[+1] 206-243-3490	http://www.kcls.org/burien/	Blind/LV	All Public
Ferndale Public Library	Library	2222 Main St	Ferndale	Washington	98248	US	48,8484281257	-122,6027569892	[+1] 360-384-3647	http://www.wcls.org	None	All Public
Seattle Public Library (Central Branch)	Library	1000 Fourth Ave	Seattle	Washington	98104	US	47,6062166978	-122,3329834638	[+1] 206-386-4636	http://www.spl.org/locations/central-library/cen-computers-and-equipment	Blind/LV, Deaf, Wheelchair accessible	All Public
Sequim Library	Library	630 N Sequim Ave	Sequim	Washington	98382-3148	US	48,0858071496	-123,1022545344	[+1] 360-683-1161	http://www.nols.org	Wheelchair accessible	All Public
Amanda Park Timberland Library	Library	6188 US Hwy 101	Amanda Park	Washington	98526-0089	US	47,4580452637	-123,90471296	[+1] 360-288-2725	http://www.trl.org/Locations/Pages/Locations.aspx	None	All Public
Madrona Branch	Library	1134 33rd Ave.	Seattle	Washington	98122	US	47,6127817486	-122,2903196267	[+1] 206-684-4705	http://www.spl.org/locations/madrona-sally-goldmark-branch/mgm-computers-and-equ...	Wheelchair accessible	All Public
Mount Vernon City Library	Library	315 Snoqualimie St	Mount Vernon	Washington	98273-4226	US	48,4157722046	-122,3379865215	[+1] 360-336-6209	http://www.ci.mount-vernon.wa.us/library	Deaf, Wheelchair accessible	All Public
Garfield Teen Life Center Computer Lab	Government/Public Community Center	428 23rd Ave	Seattle	Washington	98122	US	47,6054389348	-122,3026492001	[+1] 206-684-4550	http://www.seattle.gov/parks/rectech/labs/garfield_teen_life/	None	All Public
South Hill Library	Library	15420 Meridian E	South Hill	Washington	98388-5107	US	47,116366	-122,29407	[+1] 253-548-3303	http://www.piercecountylibrary.org	Wheelchair accessible	All Public
Wapato Library	Library	119 E 3rd St	Wapato	Washington	98951-1324	US	46,4459743681	-120,4188214905	[+1] 509-877-2882	http://www.yvl.org	Wheelchair accessible	All Public
La Casa Hogar	Human Services/Non-profit (non-residential)Faith-based	106 South 6th Street	Yakima	Washington	98901-2927	US	46,6022765368	-120,4976470664	[+1] 509-457-5058	http://www.lacasahogar.org/		
Key Center Library	Library	8905 Key Peninsula Hwy N	Lakebay	Washington	98349-9326	US	47,3388212788	-122,7467615295	[+1] 253-548-3309	http://www.piercecountylibrary.org	Wheelchair accessible	All Public
Crossroads Library Connection	Library	15600 NE 8th St	Bellevue	Washington	98008-3946	US	47,619674	-122,130339	[+1] 425-644-6203	http://www.kcls.org/crossroads/	Blind/LV	All Public
Spokane South Hill Library	Library	524 S Stone St	Spokane	Washington	99202-4150	US	47,6514443253	-117,3767459167	[+1] 509-444-5386	http://www.spokanelibrary.org	Wheelchair accessible	All Public
Kalispel Tribe Camas Center for Community Wellness	Human Services/Non-profit (non-residential)	1821 N LeClerc Road	Usk	Washington	99180	US	48,3136499997	-117,2807199996	[+1] 509-447-7139	http://www.kalispeltribe.com/wellness-center/	None	All Public
Graham Library	Library	902 224th St E	Graham	Washington	98338	US	47,0557599999	-122,2947699999	[+1] 253-548-3325	http://www.piercecountylibrary.org	Wheelchair accessible	All Public
Renton Public Library	Library	100 Mill Ave S	Renton	Washington	98055-2126	US	47,4821026118	-122,2029577481	[+1] 425-430-6610	http://www.kcls.org/rentonhighlands/	Blind/LV	All Public
Black Diamond Library	Library	24707 Roberts Drive	Black Diamond	Washington	98010	US	47,3120934281	-122,0129777061	[+1] 360-886-1105	http://www.kcls.org/blackdiamond/	None	All Public
Buckley Library	Library	123 S River Ave	Buckley	Washington	98321	US	47,1624372492	-122,0295342247	[+1] 253-548-3310	http://www.piercecountylibrary.org	Wheelchair accessible	All Public
Puyallup Public Library	Library	324 South Meridian	Puyallup	Washington	98371	US	47,189937463	-122,2938081686	[+1] 253-841-5454	http://www.cityofpuyallup.org/library/index.php	Deaf, Wheelchair accessible	All Public
Spokane Valley Library	Library	12004 E Main Ave	Spokane Valley	Washington	99206-5114	US	47,6588720026	-117,242497022	[+1] 509-893-8400	http://www.scld.org	Blind/LV, Wheelchair accessible	All Public
Granger Library	Library	508 Sunnyside Ave	Granger	Washington	98932	US	46,3455169018	-120,1900621818	[+1] 509-854-1446	http://www.yvl.org	Wheelchair accessible	All Public
Omak Community Library	Library	30 S Ash St	Omak	Washington	98841	US	48,4096440191	-119,5300575019	[+1] 509-826-1820	http://www.ncrl.org/omak.htm	Wheelchair accessible	All Public
Lake City Branch	Library	12501 28th Ave. N.E.	Seattle	Washington	98125	US	47,7194683209	-122,2977390335	[+1] 206-684-7518	http://www.spl.org/locations/lake-city-branch/lcy-computers-and-equipment	Wheelchair accessible	All Public
Centralia Timberland Library	Library	110 S Silver St	Centralia	Washington	98531-4218	US	46,7162835905	-122,9570050335	[+1] 360-736-0183	http://www.trl.org/Locations/Pages/Locations.aspx	None	All Public
Issaquah Library	Library	10 W Sunset Way	Issaquah	Washington	98027-0040	US	47,5301898441	-122,0366012891	[+1] 425-392-5430	http://www.kcls.org/issaquah/	Blind/LV	All Public
Salkum Timberland Library	Faith-based	2480 U.S. Highway 12	Salkum	Washington	98582-0120	US	46,5317606965	-122,6298586589	[+1] 360-985-2148	http://www.trl.org/Locations/Pages/Locations.aspx	None	All Public
Capitol Hill Library	Library	425 Harvard Ave. E.	Seattle	Washington	98122	US	47,622800196	-122,3220387147	[+1] 206-684-4715	http://www.spl.org/locations/capitol-hill-branch/cap-computers-and-equipment	Wheelchair accessible	All Public
Reardan Memorial Library	Library	120 S Oak	Reardan	Washington	99209	US	47,6692276773	-117,8819205104	[+1] 509-994-9997	http://communitiesconnect.org/none	Wheelchair accessible	All Public
Lacey Timberland Library	Library	500 College St SE	Lacey	Washington	98503-1240	US	47,0438886193	-122,823203902	[+1] 360-491-3860	http://www.trl.org/Locations/Pages/Locations.aspx	None	All Public
Moxee Library	Library	255 W Seattle Ave	Moxee	Washington	98936	US	46,5561062073	-120,3915745178	[+1] 509-575-8854	http://www.yvl.org	Wheelchair accessible	All Public
Steilacoom Library	Library	2950 Steilacoom Blvd	Steilacoom	Washington	98446-5309	US	47,1768983474	-122,5790739439	[+1] 253-548-3313	http://www.piercecountylibrary.org	Wheelchair accessible	All Public
Covington Library	Library	27100 164th Ave SE	Covington	Washington	98042-8240	US	47,3592179024	-122,1229557971	[+1] 253-630-8761	http://www.kcls.org/covington/	Blind/LV	All Public
Westwood Heights Senior Housing	Housing	9455 27th Ave SW	Seattle	Washington	98126	US	47,5182116546	-122,3673467958	[+1] 206-770-6835	http://www.seattlehousing.org/housing/public/locations/westwood-heights/	Blind/LV	Limited Users
Marysville Library	Library	6120 Grove St	Marysville	Washington	98270-4127	US	48,0644482514	-122,1481368139	[+1] 360-658-5000	http://www.sno-isle.org	Deaf, Wheelchair accessible	All Public
La Conner Regional Library	Library	614 Morris St	La Conner	Washington	98257	US	48,3921611989	-122,4893845579	[+1] 360-466-3352	http://www.lclib.lib.wa.us/	Wheelchair accessible	All Public
Anacortes Library	Library	1220 10th St	Anacortes	Washington	98221-1988	US	48,5142891304	-122,6164677539	[+1] 360-293-1910	http://library.cityofanacortes.org	Wheelchair accessible	All Public
Cathlamet Public Library	Library	100 Main St	Cathlamet	Washington	98612	US	46,2012986717	-123,3845954198	[+1] 360-795-3254	http://www.townofcathlamet.com/parksrec.shtml	Wheelchair accessible	All Public
Camas Public Library	Library	625 NE 4th Ave	Camas	Washington	98607-2109	US	45,5869059929	-122,4021233414	[+1] 360-834-4692	http://www.ci.camas.wa.us/library/	Wheelchair accessible	All Public
Forks Library	Library	171 Forks Ave S	Forks	Washington	98331-1817	US	47,9501399998	-124,3854300003	[+1] 360-374-6402	http://www.nols.org	Wheelchair accessible	All Public
Upper Skagit Library	Library	45770B Main Street	Concrete	Washington	98237	US	48,5388588607	-121,7496986021	[+1] 360-853-7939	http://www.upperskagit.lib.wa.us/	None	All Public
Mary L Goodrich Toppenish Library	Library	1 S Elm St	Toppenish	Washington	98948-1574	US	46,3787500464	-120,3151116741	[+1] 509-865-3600	http://www.yvl.org	Wheelchair accessible	All Public
Miller Computer Lab	Government/Public Community Center	330 19th Ave E	Seattle	Washington	98122	US	47,6210528603	-122,3072478412	[+1] 206-684-4753	http://www.seattle.gov/parks/rectech/labs/miller/	None	All Public
Fremont Branch	Library	731 N. 35th St.	Seattle	Washington	98103	US	47,6504024771	-122,3494440538	[+1] 206-684-4084	http://www.spl.org/locations/fremont-branch/fre-computers-and-equipment	Wheelchair accessible	All Public
Tillicum Library	Library	14916 Washington Ave Sw	Lakewood	Washington	98466	US	47,1238243392	-122,5533556108	[+1] 253-548-3314	http://www.piercecountylibrary.org	Wheelchair accessible	All Public
Lake Stevens Library	Library	1804 Main St	Lake Stevens	Washington	98258-0217	US	48,0140052788	-122,0641940957	[+1] 425-334-1900	http://www.sno-isle.org	Wheelchair accessible	All Public
Deming Public Library	Library	5044 Mt Baker Hwy	Deming	Washington	98244	US	48,8244293255	-122,2142279898	[+1] 360-592-2422	http://www.wcls.org	None	All Public
Clarkston Heights Library	Library	2036 4th Avenue	Clarkston	Washington	99403	US	46,3927117604	-117,0818282737	[+1] 509-758-4601	http://www.aclib.org/	None	All Public
Sultan Library	Library	319 Main St	Sultan	Washington	98294-0580	US	47,862439	-121,816746	[+1] 360-793-1695	http://www.sno-isle.org	Wheelchair accessible	All Public
Monroe Library	Library	1070 Village Way	Monroe	Washington	98272-2035	US	47,8488088152	-121,9847659741	[+1] 360-794-7851	http://www.sno-isle.org	Wheelchair accessible	All Public
Woodinville Library	Library	17105 Avandale Rd NE	Woodinville	Washington	98072-9181	US	47,7516741366	-122,0813455237	[+1] 425-788-0733	http://www.kcls.org/woodinville/	Blind/LV	All Public
Coulee City Community Library	Library	405 W Main St	Coulee City	Washington	99115	US	47,6111449825	-119,2937516454	[+1] 509-632-8751	http://www.ncrl.org/couleecity.htm	Wheelchair accessible	All Public
Fall City Library	Library	33415 SE 42nd Pl	Fall City	Washington	98024-0340	US	47,5688858404	-121,893646666	[+1] 425-222-5951	http://www.kcls.org/fallcity/	None	All Public
Northgate Branch	Library	10548 Fifth Ave. N.E.	Seattle	Washington	98125	US	47,7059508707	-122,3231309526	[+1] 206-386-1980	http://www.spl.org/locations/northgate-branch/nga-computers-and-equipment	Wheelchair accessible	All Public
Sedro Woolley Public Library	Library	802 Ball St	Sedro Woolley	Washington	98284-2008	US	48,5043418875	-122,2287084346	[+1] 360-855-1166	http://www.youseemore.com/sedro-woolley/	Blind/LV, Wheelchair accessible	All Public
Snoqualmie Library	Library	7824 Center Blvd SE	Snoqualmie	Washington	98065	US	47,5297653321	-121,8725935373	[+1] 425-888-1223	http://www.kcls.org/snoqualmie/	None	All Public
Sunnyside Library	Library	621 Grant Ave	Sunnyside	Washington	98944-2220	US	46,3212743756	-120,0119142452	[+1] 509-576-0723	http://www.yvl.org	Wheelchair accessible	
Darrington Library	Library	1005 Cascade St	Darrington	Washington	98241-0025	US	48,2542582954	-121,6036394715	[+1] 360-436-1600	http://www.sno-isle.org	Wheelchair accessible	All Public
International District - Chinatown Branch	Library	713 Eighth Ave. S.	Seattle	Washington	98104	US	47,5965363407	-122,3225273081	[+1] 206-386-1300	http://www.spl.org/locations/international-district--chinatown-branch/idc-comput...	Wheelchair accessible	All Public
North Bend Library	Library	115 E 4th St	North Bend	Washington	98045-8251	US	47,4970749763	-121,7830300564	[+1] 425-888-0554	http://www.kcls.org/northbend/	Blind/LV	All Public
Lake City Neighborhood Service Center	Government/Public Community Center	12525 28th Ave NE			98125	US	47,7197633096	-122,2977868906	[+1] 206-233-5061	http://www.seattle.gov/neighborhoods/nsc/lakecity.htm	None	All Public
Indian Trail Library	Library	3324 S Perry St	Spokane		99203-4058	US	47,6240682401	-117,3901387196	[+1] 509-444-5396	http://www.spokanelibrary.org	Wheelchair accessible	All Public
Neighborhood House Rainier Vista	Human Services/Non-profit (non-residential)	4410 29th Ave S	Seattle		98108	US	47,5628244099	-122,296003342	[+1] 206-461-4568	http://www.nhwa.org	Wheelchair accessible	All Public
Southwest Branch	Library	9010 35th Ave. S.W.	Seattle		98126	US	47,5226498161	-122,3766256985	[+1] 206-684-7455	http://www.spl.org/locations/southwest-branch/swt-computers-and-equipment	Wheelchair accessible	All Public
Neighborhood House High Point Center	Human Services/Non-profit (non-residential)	6400 Sylvan Way SW	Seattle		98126	US	47,6035599999	-122,3294399998	[+1] 206-461-4568	http://www.nhwa.org/high-point/	None, Wheelchair accessible	All Public
Tacoma Intel Computer Clubhouse	Human Services/Non-profit (non-residential)	1209 MLK Jr Way	Tacoma		98405	US	47,2505528216	-122,4513522293	[+1] 253-468-8157	http://www.cleverkids.org/	None	Limited Users
Peshastin Community Library	Library	8396 Main St	Peshastin		98847	US	47,569524359	-120,6039019642	[+1] 509-548-7821	http://www.ncrl.org/peshastin.htm	Wheelchair accessible	All Public
Lynnwood Library	Library	19200 44th Ave W	Lynnwood		98036-5617	US	47,8243382628	-122,2924600132	[+1] 425-778-2148	http://www.sno-isle.org	Wheelchair accessible	All Public
South Bend Timberland Library	Library	1st & Pacific	South Bend		98586-0368	US	46,6687000003	-123,7869699997	[+1] 360-875-5532	http://www.trl.org/Locations/Pages/Locations.aspx	None	All Public
Mabton Library	Library	415 B St	Mabton		98935	US	46,2136693027	-119,9968016661	[+1] 509-894-4128	http://www.yvl.org	Wheelchair accessible	All Public
Auburn Library	Library	1140 Auburn Way South	Auburn		98002	US	47,2977402485	-122,2182659457	[+1] 253-931-3018	http://www.kcls.org/auburn/	Blind/LV	All Public
Camano Island Library Pilot Project	Library	848 N. Sunrise Blvd	Camano Island		98282-8770	US	48,2411466114	-122,4560370658	[+1] 360-387-5150	http://www.sno-isle.org	Wheelchair accessible	All Public
Delridge Computer Lab	Government/Public Community Center	4501 Delridge Way SW	Seattle		98106	US	47,5628384995	-122,3634767055	[+1] 206-799-2030	http://www.seattle.gov/parks/rectech/labs/delridge/	None	All Public
Bonney Lake Library	Library	18501 90th St E	Bonney Lake		98390-7185	US	47,1758461407	-122,18239199	[+1] 253-548-3308	http://www.piercecountylibrary.org	Wheelchair accessible	All Public
Deer Park Library	Library	208 S Forest Ave	Deer Park		99006	US	47,9523383194	-117,4604620758	[+1] 509-893-8300	http://www.scld.org	Wheelchair accessible	All Public
Denny Terrace	Housing	100 Melrose Ave E	Seattle		98102	US	47,6187352604	-122,3278303486	[+1] 206-659-8993	http://www.fulllifecare.org/	Wheelchair accessible	Limited Users
Chelan Community Library	Library	417 S Bradley	Chelan		98816	US	47,8369245351	-120,0129933669	[+1] 509-682-5131	http://www.ncrl.org/chelan.htm	Wheelchair accessible	All Public
Helping Link	Human Services/Non-profit (non-residential)	1032 S Jackson StSte C	Seattle		98104	US	47,6035599999	-122,3294399998	[+1] 206-568-5160	http://helpinglink.org	None	Limited Users
Winlock Timberland Library	Library	322 NE First Street	Winlock		98596-0248	US	46,4923164323	-122,9366713624	[+1] 360-785-3461	http://www.trl.org/Locations/Pages/Locations.aspx	None	All Public
Kelso Public Library	Library	351 Three Rivers Dr	Kelso		98626	US	46,140371	-122,899656	[+1] 360-423-8110	http://library.kelso.gov	Wheelchair accessible	All Public
Summit Library	Library	5107 112th St E	Tacoma		98390-1512	US	47,1544512696	-122,3601519823	[+1] 253-548-3321	http://www.piercecountylibrary.org	Wheelchair accessible	All Public
Des Moines Library	Library	21620 11th Ave S	Des Moines		98198-6317	US	47,4078846153	-122,3198156075	[+1] 206-824-6066	http://www.kcls.org/desmoines/	Blind/LV	All Public
Lake Hills Library	Library	15590 Lake Hills Blvd	Bellevue		98007-5997	US	47,6033601987	-122,1310303835	[+1] 425-747-3360	http://www.kcls.org/lakehills/	Blind/LV	All Public
University Branch	Library	5009 Roosevelt Way N.E.	Seattle		98105	US	47,6654516394	-122,3175194815	[+1] 206-684-4063	http://www.spl.org/locations/university-branch/uni-computers-and-equipment	Wheelchair accessible	All Public
Renton Highlands Library	Library	2902 NE 12 St	Renton		98056-3126	US	47,5031462635	-122,1801391883	[+1] 425-430-6790	http://www.kcls.org/renton/	Blind/LV	All Public
Lopez Island Library District	Library	2225 Fisherman Bay Rd	Lopez Island		98261	US	48,5216365914	-122,9098985456	[+1] 360-468-2265	http://www.lopezlibrary.org/	Wheelchair accessible	All Public
Queen Anne Branch	Library	400 W. Garfield St.	Seattle		98119	US	47,6335749374	-122,3624039746	[+1] 206-386-4227	http://www.spl.org/locations/queen-anne-branch/qna-computers-and-equipment	Wheelchair accessible	All Public
International District Computer Lab	Government/Public Community Center	719 8th Ave S	Seattle		98104	US	47,5964882067	-122,3225283432	[+1] 206-233-0042	http://www.seattle.gov/parks/rectech/labs/international_district/	None	All Public
Oak Harbor Library	Library	1000 SE Regatta Dr	Oak Harbor		98277-3091	US	48,2905922185	-122,6357387672	[+1] 360-675-5115	http://www.sno-isle.org	Blind/LV, Wheelchair accessible	All Public
Twisp Community Library	Library	201 N Methow Valley Hwy	Twisp		98856	US	48,3661977719	-120,1224499158	[+1] 509-997-4681	http://www.ncrl.org/twisp.htm	Wheelchair accessible	All Public
Fairwood Library	Library	17009 140th Ave SE	Renton		98058-6928	US	47,4496807054	-122,1540633461	[+1] 425-226-0522	http://www.kcls.org/fairwood/	Blind/LV	All Public
Hillyard Library	Library	2111 W Wellesley Ave	Spokane		99205-5012	US	47,7006896135	-117,4419881547	[+1] 509-444-5381	http://www.spokanelibrary.org	Wheelchair accessible	All Public
Tenino Timberland Library	Library	172 Central Avenue W	Tenino		98589-4017	US	46,856739705	-122,8517214035	[+1] 360-264-2369	http://www.trl.org/Locations/Pages/Locations.aspx	None	All Public
Langley Library	Library	104 2nd St	Langley		98260-0365	US	48,0399417261	-122,4062512295	[+1] 360-221-4383	http://www.sno-isle.org	Wheelchair accessible	All Public
Muckleshoot Library	Library	39917 Auburn Enumclaw Rd SE	Auburn		98092	US	47,2439341078	-122,112930995	[+1] 253-931-6779	http://www.kcls.org/muckleshoot/	None	All Public
Kalispel Tribal Court	Justice Center	22 Camas Flat Road	Usk		99119	US	48,3136499997	-117,2807199996	[+1] 509-447-7139	http://www.kalispeltribe.com/tribal-court/	None	Limited Users
East Wenatchee Community Library	Library	271 9th St NE	East Wenatchee		98802-4438	US	47,4169273971	-120,2892291861	[+1] 509-886-7404	http://www.ncrl.org/eastwenatchee.htm	Wheelchair accessible	All Public
New Futures The Heights at Burien	Housing	13737 SW 12th AveBuilding 31	Burien		98166	US	47,4686200004	-122,3403599997	[+1] 206-241-4840	http://newfutures.org/our-programs/our-sites/the-heights-at-burien/	None	Limited Users
Snohomish Library	Library	311 Maple Ave	Snohomish		98290-2525	US	47,91548323	-122,0887172658	[+1] 360-568-2898	http://www.sno-isle.org	Wheelchair accessible	All Public
Milton Edgewood Library	Library	900 Meridian E.	Milton		98354	US	47,24723	-122,295602	[+1] 253-548-3325	http://www.piercecountylibrary.org	Wheelchair accessible	All Public
High Point Branch	Library	3411 S.W. Raymond St.	Seattle		98126	US	47,5483003591	-122,3757821992	[+1] 206-684-7454	http://www.spl.org/locations/high-point-branch/hip-computers-and-equipment	Wheelchair accessible	All Public
Valley View Library	Library	17850 Military Rd S	SeaTac		98188-8698	US	47,4430167291	-122,2740239116	[+1] 206-242-6044	http://www.kcls.org/valleyview/	None	All Public
Shadle Library	Library	4005 N Cook St	Spokane		99207-5879	US	47,6936519694	-117,3736006992	[+1] 509-444-5391	http://www.spokanelibrary.org	Wheelchair accessible	All Public
Freeland Library	Library	5495 Harbor Ave	Freeland		98249-1357	US	48,0115311523	-122,5271190991	[+1] 360-331-7323	http://www.sno-isle.org	Wheelchair accessible	All Public
Yakima Central Library	Library	102 North 3rd Street	Yakima		98901	US	46,6043179978	-120,5038433952	[+1] 509-452-8541	http://www.yvl.org	Wheelchair accessible	All Public
Chehalis Timberland Library	Library	76 NE Park St	Chehalis		98532-0419	US	46,6642578111	-122,96788683	[+1] 360-748-3301	http://www.trl.org/Locations/Pages/Locations.aspx	None	All Public
Street Youth Ministries	Human Services/Non-profit (non-residential)Faith-based	4540 15th Ave NE	Seattle		98105	US	47,6620301409	-122,3118706425	[+1] 206-524-7301	http://www.streetyouthministries.org/	None	Limited Users
Tumwater Timberland Library	Library	7023 New Market St SW	Tumwater		98501-6563	US	46,9852058515	-122,9128874264	[+1] 360-943-7790	http://www.trl.org/Locations/Pages/Locations.aspx	None	All Public
Touchet Library	Library	161 Hanson Rd	Touchet		99361	US	46,0434108482	-118,6744155435	[+1] 509-394-2329	http://www.wwrurallibrary.com/branches/touchet	Wheelchair accessible	All Public
Newport Way Library	Library	14250 SE Newport Way	Bellevue		98006	US	47,5699830132	-122,148469563	[+1] 425-747-2390	http://www.kcls.org/newportway/	Blind/LV	All Public
Delridge Neighborhood Service Center	Government/Public Community Center	5405 Delridge Way S.W.	Seattle		98106	US	47,553644485	-122,3630768698	[+1] 206-233-5061	http://www.seattle.gov/neighborhoods/nsc/delridge.htm	None	All Public
Ritzville Public Library	Library	302 W Main Ave	Ritzville		99169-1412	US	47,1262233032	-118,3816888612	[+1] 509-659-1222	http://www.ritzcom.net/ritzlib	None	All Public
Rainier Computer Lab	Government/Public Community Center	4600 38th Ave S	Seattle		98118	US	47,5617415445	-122,2848419177	[+1] 206-386-1919	http://www.seattle.gov/parks/rectech/labs/rainier/	None	All Public
Hoodsport Timberland Library	Library	40 N Schoolhouse Hill Rd	Hoodsport		98548-0847	US	47,4051103056	-123,1418516834	[+1] 360-877-9339	http://www.trl.org/Locations/Pages/Locations.aspx	None	All Public
Southeast Yakima Library	Library	1211 S 7th St	Yakima		98901-3509	US	46,5878604047	-120,4927187817	[+1] 509-576-0723	http://www.yvl.org	Wheelchair accessible	All Public
East Side Library	Library	4904 W Barnes Rd	Spokane		99208-9155	US	47,7408901717	-117,4824811056	[+1] 509-444-5376	http://www.spokanelibrary.org	Wheelchair accessible	All Public
North Spokane Library	Library	44 E Hawthorne Rd	Spokane		99218-1597	US	47,7511608949	-117,4097241778	[+1] 509-893-8350	http://www.scld.org	Blind/LV, Wheelchair accessible	All Public
Roslyn Public Library	Library	109 S. First Street	Roslyn		98941	US	47,2221792116	-120,9925619656	[+1] 509-649-3420	http://www.roslynlibrary.org/	Wheelchair accessible	All Public
Okanogan Community Library	Library	228 Pine Street	Okanogan		98840	US	48,364095789	-119,5808999981	[+1] 509-422-2609	http://www.ncrl.org/okanogan.htm	Wheelchair accessible	All Public
Stanwood Library	Library	9701 271st St NW	Stanwood		98292-8097	US	48,2421183115	-122,3638302094	[+1] 360-629-3132	http://www.sno-isle.org	Wheelchair accessible	All Public
Horn of Africa Services	Human Services/Non-profit (non-residential)	4714 Rainier Avenue SouthSuite 105	Seattle		98118	US	47,5601887429	-122,2864614218	[+1] 206-760-0550	http://hoas.org/	None	All Public
Selah Library	Library	106 South Second Street	Yakima		98942	US	46,6011686898	-120,5040364131	[+1] 509-698-7345	http://www.yvl.org	Wheelchair accessible	All Public
Southeast Neighborhood Service Center	Government/Public Community Center	3815 S Othello St. Suite 105	Seattle		98118	US	47,5369785117	-122,2844582952	[+1] 206-233-5061	http://www.seattle.gov/neighborhoods/nsc/southeast.htm	None	All Public
Broadview Branch	Library	12755 Greenwood Ave. N.	Seattle		98133	US	47,7229127243	-122,3556104061	[+1] 206-684-7519	http://www.spl.org/locations/broadview-branch/bro-computers-and-equipment	Wheelchair accessible	All Public
Richland Public Library	Library	955 Northgate Dr	Richland		99352-3539	US	46,2797706639	-119,2780674693	[+1] 509-943-7450	http://www.richland.lib.wa.us	Wheelchair accessible	All Public
University Neighborhood Service Center	Government/Public Community Center	4534 University Way NE	Seattle		98105	US	47,6623703653	-122,3130454944	[+1] 206-233-5061	http://www.seattle.gov/neighborhoods/nsc/university.htm	None	All Public
Jefferson Terrace Computer Lab	Housing	800 Jefferson Street	Seattle		98104-2401	US	47,604519	-122,325182	[+1] 206-382-0763	http://www.seattlehousing.org/housing/public/locations/jefferson-terrace/	Blind/LV, Wheelchair accessible	Limited Users
Kenmore Library	Library	6531 NE 181 St	Kenmore		98028-2703	US	47,7595421106	-122,252323271	[+1] 425-486-8747	http://www.kcls.org/kenmore/	None	All Public
Packwood Timberland Library	Library	109 W. Main Street	Packwood		98361-0589	US	46,6101900001	-121,6693899998	[+1] 360-494-5111	http://www.trl.org/Locations/Pages/Locations.aspx	None	All Public
Maple Valley Library	Library	21844 SE 248th St	Maple Valley		98083-8582	US	47,3796415057	-122,0490495127	[+1] 425-432-4620	http://www.kcls.org/maplevalley/	Blind/LV	All Public
New Futures Windsor Heights	Housing	17229 32nd Ave SCommunity Center	SeaTac		98188	US	47,4340600003	-122,2742600002	[+1] 206-901-0180	http://newfutures.org/our-programs/our-sites/windsor-heights/	None	Limited Users
Fife Library	Library	6622 20th St. E	Fife		98424	US	47,2389695539	-122,3411493078	[+1] 253-548-3323	http://www.piercecountylibrary.org	Wheelchair accessible	All Public
Lake Forest Park Library	Library	17171 Bothell Way NE	Lake Forest Park		98155-5534	US	47,7525903513	-122,2789252166	[+1] 206-362-8860	http://www.kcls.org/lakeforestpark/	None	All Public
DuPont Library	Library	1450 Wilminton Dr	DuPont		98237-8771	US	47,0904687465	-122,6422097677	[+1] 253-548-3326	http://www.piercecountylibrary.org	Wheelchair accessible	All Public
Redmond Library	Library	15990 NE 85th St	Redmond		98052-3531	US	47,6785761483	-122,1296017869	[+1] 425-885-1861	http://www.kcls.org/redmond/	Blind/LV	All Public
Mattawa Community Library	Library	101 Manson Lane	Mattawa		99349	US	46,7377700001	-119,9000000004	[+1] 509-932-5507	http://www.ncrl.org/mattawa.htm	Wheelchair accessible	All Public
Federal Way 320th Library	Library	848 S 320th St	Federal Way		98003-5346	US	47,3151870959	-122,3214271757	[+1] 253-839-0257	http://www.kcls.org/320th/	Blind/LV	All Public
Longview Public Library	Library	1600 Louisiana St	Longview		98632-2993	US	46,1402048782	-122,9381462505	[+1] 360-442-5300	http://www.longviewlibrary.org/	Wheelchair accessible	All Public
University Place Library	Library	3609 Market Place W.	Pierce		98375	US	47,225832	-122,536231	[+1] 253-548-3307	http://www.piercecountylibrary.org	Wheelchair accessible	All Public
Aberdeen Timberland Library	Library	121 E Market St	Aberdeen		98520-5292	US	46,9755851112	-123,8177011816	[+1] 360-533-2360	http://www.trl.org/Locations/Pages/Locations.aspx	Wheelchair accessible	All Public
Wenatchee Community Library	Library	310 Douglas St	Wenatchee		98801-2864	US	47,4233035903	-120,3143922165	[+1] 509-662-5021	http://www.ncrl.org/wenatchee.htm	Wheelchair accessible	All Public
Federal Way Library	Library	34200 1st Way S	Federal Way		98003-6508	US	47,2948264451	-122,3325248096	[+1] 253-838-3668	http://www.kcls.org/federalway/	Blind/LV	All Public
Montesano Timberland Library	Library	121 South 4th Street	Montesano		98563-3794	US	46,9809076587	-123,6054246278	[+1] 360-249-4211	http://www.trl.org/Locations/Pages/Locations.aspx	None	All Public
Lynden Public Library	Library	216 4th St	Lynden		98264-1980	US	48,9443064895	-122,4525525475	[+1] 360-354-4883	http://www.wcls.org	None	All Public
Northeast Branch	Library	6801 35th Ave. N.E.	Seattle		98115	US	47,6778566906	-122,2903825793	[+1] 206-684-7539	http://www.spl.org/locations/northeast-branch/net-computers-and-equipment	Wheelchair accessible	All Public
Airway Heights Library	Library	1213 S. Lundstrom St	Airway Heights		99001	US	47,6444918434	-117,5930797287	[+1] 509-893-8250	http://www.scld.org	Wheelchair accessible	All Public
White Center Library	Library	11220 16th Ave Sw	Seattle		98146-3579	US	47,5018863492	-122,3551517518	[+1] 206-243-0233	http://www.kcls.org/whitecenter/	None	All Public
Chinese Information and Service Center	Human Services/Non-profit (non-residential)	611 S Lane St	Seattle		98104	US	47,5966070509	-122,3256335939	[+1] 206-624-5633	http://www.cisc-seattle.org/	Blind/LV, None, Wheelchair accessible	All Public
Central Neighborhood Service Center	Government/Public Community Center	2301 S. Jackson St	Seattle		98144	US	47,598465	-122,301416	[+1] 206-233-5061	http://www.seattle.gov/neighborhoods/nsc/central.htm	None	All Public
Jack Straw Productions	Human Services/Non-profit (non-residential)	4261 Roosevelt Way NE	Seattle		98105-6999	US	47,6593036772	-122,3178119012	[+1] 206-634-0919	http://www.jackstraw.org	Blind/LV	Limited Users
Mountlake Terrace Library	Library	23300 58th Ave W	Mountlake Terrace		98043-4630	US	47,7874590894	-122,3111860088	[+1] 425-776-8722	http://www.sno-isle.org	Wheelchair accessible	All Public
Skykomish Library	Library	100 5th St	Skykomish		98288	US	47,7086683378	-121,3607849607	[+1] 360-677-2660	http://www.kcls.org/skykomish/	None	All Public
Winthrop Community Library	Library	49 Highway 20	Winthrop		98862	US	48,4737300002	-120,1775600001	[+1] 509-996-2685	http://www.ncrl.org/Winthrop.htm	Wheelchair accessible	All Public
Kingsgate Library	Library	12315 NE 143rd St	Kirkland		98034-1415	US	47,7300083751	-122,1763215663	[+1] 425-821-7686	http://www.kcls.org/kingsgate/	Blind/LV	All Public
Naselle Timberland Library	Library	4 Parpala Road	Naselle		98638-0190	US	46,3658088024	-123,8121613579	[+1] 360-484-3877	http://www.trl.org/Locations/Pages/Locations.aspx	None	All Public
Ephrata Community Library	Library	45 Alder St NW	Ephrata		98823	US	47,3207869999	-119,5498409846	[+1] 509-754-3971	http://www.ncrl.org/Ephrata.htm	Wheelchair accessible	All Public
Olympia Timberland Library	Library	313 8th Ave SE	Olympia		98501-1307	US	47,04171226	-122,8980544745	[+1] 360-352-0595	http://www.trl.org/Locations/Pages/Locations.aspx	None	All Public
Magnolia Branch	Faith-based	2801 34th Ave. W.	Seattle		98199	US	47,6451483484	-122,4010351618	[+1] 206-386-4225	http://www.spl.org/locations/magnolia-branch/mag-computers-and-equipment	Wheelchair accessible	All Public
Prescott Library	Library	103 S D Street	Prescott		99348	US	46,299411857	-118,3147586776	[+1] 509-849-2411	http://www.wwrurallibrary.com/branches/prescott	Wheelchair accessible	All Public
Raymond Timberland Library	Library	507 Duryea St	Raymond		98577-1829	US	46,6866427999	-123,7308279657	[+1] 360-942-2408	http://www.trl.org/Locations/Pages/Locations.aspx	None	All Public
Plaza Library	Library	1640 Plaza Way	Walla Walla		99362	US	46,0481799969	-118,3461070095	[+1] 509-525-5161	http://www.wwrurallibrary.com/branches/plaza	Wheelchair accessible	All Public
Orting Library	Library	202 Washington Ave S	Orting		98360	US	47,0967867411	-122,2025278102	[+1] 253-548-3312	http://www.piercecountylibrary.org	Wheelchair accessible	All Public
Port Townsend Public Library	Library	1220 Lawrence St	Port Townsend		98368-6527	US	48,1165145726	-122,7629597606	[+1] 360-385-3181	http://ptpubliclibrary.org/	Wheelchair accessible	All Public
Brier Library	Library	23303 Brier Rd	Brier		98036-8247	US	47,7870253918	-122,2742397488	[+1] 425-483-0888	http://www.sno-isle.org	Wheelchair accessible	All Public
Vista Hermosa Library	Library	76 Sara Lynne Ln	Prescott		99348	US	46,3116807112	-118,71992913	[+1] 509-749-2099	http://www.wwrurallibrary.com/branches/vistahermosa	Wheelchair accessible	All Public
Downtown Spokane Library	Library	906 W Main Ave	Spokane		99201-0976	US	47,6590338806	-117,4253022109	[+1] 509-444-5334	http://www.spokanelibrary.org	Wheelchair accessible	All Public
Burbank Library	Library	875 Lake Rd	Burbank		99323-9596	US	46,2095785795	-118,9923258809	[+1] 509-545-6549	http://www.wwrurallibrary.com/branches/burbank	Wheelchair accessible	All Public
Clallam Bay Library	Library	16990 Hwy 12	Clallam Bay		98326	US	48,2537100001	-124,2601500002	[+1] 360-963-2414	http://www.nols.org	Wheelchair accessible	All Public
Ellensburg Public Library	Library	209 N Ruby St	Ellensburg		98926-3338	US	46,9943449687	-120,5445017441	[+1] 509-962-7250	http://www.ellensburglibrary.org	Wheelchair accessible	All Public
Union Gap Library	Library	3104 1st St	Union Gap		98903-1817	US	46,5571771264	-120,4766119367	[+1] 509-452-4252	http://www.yvl.org	Wheelchair accessible	All Public
Oakville Timberland Library	Library	204 Main Street	Oakville		98568-0079	US	46,8399023161	-123,2328081564	[+1] 360-273-5305	http://www.trl.org/Locations/Pages/Locations.aspx	None	All Public
Pateros Community Library	Library	174 Pateros Mall	Pateros		98846	US	48,0523617932	-119,9020640373	[+1] 509-923-2298	http://www.ncrl.org/pateros.htm	Wheelchair accessible	All Public
Southcenter Library Connection	Library	633 Southcenter Mall	Tukwila		98188-2816	US	47,4606376163	-122,2602023302	[+1] 206-242-6044	http://www.kcls.org/southcenter/	Blind/LV	All Public
Duvall Library	Library	15619 NE Main St	Duvall		98019-0339	US	47,7404799999	-121,9861400001	[+1] 425-788-1173	http://www.kcls.org/duvall/	Blind/LV	All Public
Barkley Library	Library	3111 Newmarket St. Suite 103	Bellingham		98226	US	48,7719358986	-122,443582087	[+1] 360-778-7325	http://www.bellinghampubliclibrary.org	Wheelchair accessible	All Public
Greenwood Branch	Library	8016 Greenwood Ave. N.	Seattle		98103	US	47,6873265516	-122,3552776569	[+1] 206-684-4086	http://www.spl.org/locations/greenwood-branch/gwd-computers-and-equipment	Wheelchair accessible	All Public
Mercer Island Library	Library	4400 88th Ave SE	Mercer Island		98040	US	47,5672397246	-122,221520538	[+1] 206-236-3537	http://www.kcls.org/mercerisland/	Blind/LV	All Public
Asotin County Library	Library	417 Sycamore St	Clarkston		99403-2666	US	46,4126446303	-117,0431447813	[+1] 509-758-5454	http://www.aclib.org/	None	All Public
Bothell Library	Library	18215 98th Ave NE	Bothell		98011-3336	US	47,7604504258	-122,2097133932	[+1] 425-486-7811	http://www.kcls.org/bothell/	Blind/LV	All Public
Sumner Library	Library	1116 Fryar Ave	Sumner		98498-2235	US	47,2044211265	-122,2438551373	[+1] 253-548-3306	http://www.piercecountylibrary.org	Wheelchair accessible	All Public
Columbia Branch	Library	21 Rainier Ave. S.	Seattle		98118	US	47,6035599999	-122,3294399998	[+1] 206-386-1908	http://www.spl.org/locations/columbia-branch/col-computers-and-equipment	Blind/LV, Wheelchair accessible	All Public
Moran Prairie Library	Library	6004 S Regal St	Spokane		99223-6946	US	47,5994448029	-117,3685909638	[+1] 509-893-8340	http://www.scld.org	Wheelchair accessible	All Public
Liberty Lake Municipal Library	Library	23123 E. Mission Avenue	Liberty Lake		99019	US	47,6713464626	-117,0956645117	[+1] 509-232-2510	http://www.libertylakewa.gov/library/	Wheelchair accessible	All Public
Multimedia Resources and Training Institute	Human Services/Non-profit (non-residential)K-12 Education	2301 S Jackson Street Suite 103	Seattle		98144	US	47,5992281022	-122,3022331255	[+1] 206-838-6359	http://mmrtiseattle.org/	None	Limited Users
Blaine Public Library	Library	610 3rd St	Blaine		98230-4022	US	48,9947159517	-122,7497472786	[+1] 360-332-8146	http://www.wcls.org	None	All Public
Republic Community Library	Library	794 S Clark Ave	Republic		99166	US	48,6457910987	-118,7376379701	[+1] 509-775-3328	http://www.ncrl.org/republic.htm	Wheelchair accessible	All Public
Ocean Shores Public Library	Library	573 Point Brown Ave NW	Ocean Shores		98569	US	47,0012650033	-124,1607997533	[+1] 360-289-3919	http://oslibrary.info/	Wheelchair accessible	All Public
Westport Timberland Library	Library	101 E. Harms Drive	Westport		98595-1410	US	46,8907800001	-124,1042399996	[+1] 360-268-0521	http://www.trl.org/Locations/Pages/Locations.aspx	None	All Public
South Park Computer Lab	Government/Public Community Center	8319 8th Ave S	Seattle		98108	US	47,5288340427	-122,3229509194	[+1] 206-615-0981	http://www.seattle.gov/parks/rectech/labs/south_park/	None	All Public
Fairfield Library	Library	305 E Main	Fairfield		99012	US	47,3853140358	-117,1704280777	[+1] 509-893-8320	http://www.scld.org	Wheelchair accessible	All Public
Otis Orchards Library	Library	22324 E Wellesley Ave	Otis Orchards		99027-9336	US	47,7003127617	-117,1057910804	[+1] 509-893-8390	http://www.scld.org	Wheelchair accessible	All Public
Gig Harbor Library	Library	4424 Point Fosdick Dr NW	Gig Harbor		98335-1700	US	47,2989633265	-122,5793347473	[+1] 253-548-3305	http://www.piercecountylibrary.org	Wheelchair accessible	All Public
Douglass-Truth Branch	Library	2300 E. Yesler Way	Seattle		98122	US	47,6016841148	-122,3017859826	[+1] 206-684-4704	http://www.spl.org/locations/douglass-truth-branch/dth-computers-and-equipment	Wheelchair accessible	All Public
Grand Coulee Community Library	Library	225 Federal St	Grand Coulee		99133	US	47,9393730351	-119,0026620576	[+1] 509-633-0972	http://www.ncrl.org/grandcoulee.htm	Wheelchair accessible	All Public
Ilwaco Timberland Library	Library	158 1st Ave N	Ilwaco		98624-0520	US	46,3110251182	-124,0433003871	[+1] 360-642-3908	http://www.trl.org/Locations/Pages/Locations.aspx	None	All Public
Oroville Community Library	Library	1276 Main St	Oroville		Oroville	US	48,9371647453	-119,4369362416	[+1] 509-476-2662	http://www.ncrl.org/oroville.htm	Wheelchair accessible	All Public
Orcas Island Library District	Library	500 Rose St	Eastsound		98245-9453	US	48,6972292176	-122,9040979185	[+1] 360-376-5750	http://www.orcaslibrary.org	Wheelchair accessible	All Public
Ballard Neighborhood Service Center	Government/Public Community Center	5604 22nd Ave NW	Seattle		98107	US	47,6694972171	-122,3846760214	[+1] 206-233-5061	http://www.seattle.gov/neighborhoods/nsc/ballard.htm	None	All Public
Island Public Library	Library	2144 S Nugent Rd	Lummi Island		98262	US	48,7195503904	-122,6827927535	[+1] 360-758-7145	http://www.wcls.org	None	All Public
Foster Library	Library	4060 S144th	Seattle		98178-0039	US	47,6035599999	-122,3294399998	[+1] 206-242-1640	http://www.kcls.org/foster/	Blind/LV	All Public
Greenbridge Library	Library	9720 8th Ave SW	Seattle		98106	US	47,5159157728	-122,3452682027	[+1] 206-762-1682	http://www.kcls.org/greenbridge/	None	All Public
Wallingford Branch	Library	1501 N. 45th St.	Seattle		98103	US	47,6613541314	-122,3389279824	[+1] 206-684-4088	http://www.spl.org/locations/wallingford-branch/wal-computers-and-equipment	Wheelchair accessible	All Public
Yesler Computer Lab	Government/Public Community Center	917 E Yesler Way Seattle	Seattle		98122	US	47,6016751215	-122,3200871859	[+1] 206-615-1579	http://www.seattle.gov/parks/rectech/labs/yesler/	None	All Public
Hoquiam Timberland Library	Library	420 7th St	Hoquiam		98550-3616	US	46,9770689925	-123,8866342152	[+1] 360-532-1710	http://www.trl.org/Locations/Pages/Locations.aspx	None	All Public
Sammamish Library	Library	825 228th Ave NE	Redmond		98074-6501	US	47,6785599997	-122,1309899997	[+1] 425-836-8793	http://www.kcls.org/sammamish/	Blind/LV	All Public
Coupeville Library	Library	788 NW Alexander	Coupeville		98239-0745	US	48,2185700002	-122,6855799998	[+1] 360-678-4911	http://www.sno-isle.org	Wheelchair accessible	All Public
Bridgeport Community Library	Library	1206 Columbia St	Bridgeport		98813	US	48,009631712	-119,6741293178	[+1] 509-686-7281	http://www.ncrl.org/bridgeport.htm	Wheelchair accessible	All Public
Eatonville Library	Library	205 Center St	Eatonville		98328-0069	US	46,8664970498	-122,2646776324	[+1] 253-548-3311	http://www.piercecountylibrary.org	Wheelchair accessible	All Public
Edmonds Library	Library	650 Main St	Edmonds		98020-3097	US	47,8104608604	-122,3730808402	[+1] 425-771-1933	http://www.sno-isle.org	Wheelchair accessible	All Public
Green Lake Branch	Library	7364 E. Green Lake Dr. N.	Seattle		98115	US	47,6815888771	-122,3273537079	[+1] 206-684-7547	http://www.spl.org/locations/green-lake-branch/glk-computers-and-equipment	Wheelchair accessible	All Public
Roy City Library	Library	122 3rd St	Roy		98580	US	47,0027985965	-122,5432675436	[+1] 253-843-2331	http://roylibrary.home.comcast.net/	None, Wheelchair accessible	All Public
Mukilteo Library	Library	4675 Harbour Pointe Blvd	Mukilteo		98275-4725	US	47,9049175166	-122,2962461589	[+1] 425-493-8202	http://www.sno-isle.org	Wheelchair accessible	All Public
Parkland Spanaway Library	Library	13718 Pacific Ave S	Tacoma		98444-4746	US	47,1321930494	-122,4347327582	[+1] 253-548-3304	http://www.piercecountylibrary.org	Wheelchair accessible	All Public
Naches Library	Library	303 Naches Ave	Naches		98937	US	46,7325793057	-120,7010197501	[+1] 509-653-2005	http://www.yvl.org	Wheelchair accessible	All Public
Tonasket Community Library	Library	209 A Whitcomb	Tonasket		98855	US	48,7085399998	-119,4368300001	[+1] 509-486-2366	http://www.ncrl.org/tonasket.htm	Wheelchair accessible	All Public
Bellingham Public Library	Library	210 Central Ave	Bellingham		98227-9710	US	48,7539134851	-122,4784937681	[+1] 360-778-7323	http://www.bellinghampubliclibrary.org	Wheelchair accessible	All Public
Entiat Community Library	Library	14138 Kinzel St	Entiat		98822	US	47,6769034093	-120,2093244238	[+1] 509-784-1517	http://www.ncrl.org/Entiat.htm	Wheelchair accessible	All Public
McCleary Timberland Library	Library	121 South 4th Street	McCleary		98557-0660	US	47,054815382	-123,266551676	[+1] 360-495-3368	http://www.trl.org/Locations/Pages/Locations.aspx	None	All Public
Kent Library	Library	212 2nd Ave N	Kent		98032-4482	US	47,3828520854	-122,2347325321	[+1] 253-859-3330	http://www.kcls.org/kent	Blind/LV	All Public
Special Technology Access Resource Center	Human Services/Non-profit (non-residential)Other	2600 South Walker Street	Seattle		98144	US	47,5836849102	-122,2992336815	[+1] 206-325-4284	http://www.starofseattle.org	Blind/LV, Deaf, Wheelchair accessible	All Public
Terrace Heights Library	Library	4011 Commonwealth Rd	Yakima		98901-1248	US	46,6070429436	-120,4464486633	[+1] 509-457-5319	http://www.yvl.org	Wheelchair accessible	All Public
Port Angeles Library	Library	2210 S Peabody St	Port Angeles		98362-6536	US	48,1060778681	-123,4383851361	[+1] 360-417-8500	http://www.nols.org	Wheelchair accessible	All Public
Shelton Timberland Library	Library	710 W Alder St	Shelton		98584-2571	US	47,2166753608	-123,1072727514	[+1] 360-426-1362	http://www.trl.org/Locations/Pages/Locations.aspx	None	All Public
Woodmont Library	Library	26809 Pacific Hwy S	Des Moines		98198-9255	US	47,3608906414	-122,3079013724	[+1] 253-839-0121	http://www.kcls.org/woodmont/	Blind/LV	All Public
Cheney Library	Library	610 1st St	Cheney		99004-1688	US	47,4883965187	-117,5741939661	[+1] 509-893-8280	http://www.scld.org	Blind/LV, Wheelchair accessible	All Public
Southwest Computer Lab	Government/Public Community Center	2801 SW Thistle St	Seattle		98126	US	47,5282634643	-122,368956345	[+1] 206-684-7438	http://www.seattle.gov/parks/rectech/labs/southwest/	None	All Public
Chelan County Law Library Computing Center	Justice Center	401 Washington St	Wenatchee		98807-0880	US	47,4225285268	-120,3167665234	[+1] 509-667-6210	http://www.co.chelan.wa.us/scj/scj_main.htm	None	Limited Users
Bellevue Library	Library	1111 110th Ave NE	Bellevue		98004-4515	US	47,6204889384	-122,1936874747	[+1] 425-450-1765	http://www.kcls.org/bellevue/	Blind/LV	All Public
Arlington Library	Library	135 N Washington Ave	Arlington		98223-1422	US	48,1934649897	-122,1187109971	[+1] 360-435-3033	http://www.sno-isle.org	Wheelchair accessible	All Public
North Mason Timberland Library	Library	23081 NE State Route 3	Belfair		98528-1179	US	47,4417217054	-122,8333662409	[+1] 360-275-3232	http://www.trl.org/Locations/Pages/Locations.aspx	None	All Public
Algona-Pacific Library	Library	255 Ellingson Dr	Pacific		98047-1526	US	47,2715362008	-122,2338430921	[+1] 253-833-3554	http://www.kcls.org/algonapacific/	Blind/LV	All Public
Mountain View Timberland Library	Library	210 Silverbrook Road	Randle		98377-0340	US	46,5357631038	-121,9594284732	[+1] 360-497-2665	http://www.trl.org/Locations/Pages/Locations.aspx	None	All Public
Waterville Community Library	Library	105 N Chelan St	Waterville		98858	US	47,6474131514	-120,0713602924	[+1] 509-745-8354	http://www.ncrl.org/waterville.htm	Wheelchair accessible	All Public
Granite Falls Library	Library	815 E Galena	Granite Falls		98252-0599	US	48,0821264691	-121,95854927	[+1] 360-691-6087	http://www.sno-isle.org	Wheelchair accessible	All Public
